BEESAT-4                
1 41619U 16040W   22086.88067014  .00014321  00000+0  51672-3 0  9998
2 41619  97.2289 139.7869 0010952  55.0947 305.1320 15.28556342308253
CAS-2T & KS-1Q          
1 41847U 16066G   22086.89405401  .00000920  00000+0  14644-3 0  9994
2 41847  98.5597 151.6258 0365493  93.8039 270.5010 14.38437439282620
NAYIF-1 (EO-88)         
1 42017U 17008BX  22086.91865766  .00016838  00000+0  55251-3 0  9992
2 42017  97.2784 154.3510 0006076 166.2093 193.9315 15.31652708284584
ZHUHAI-1 02 (CAS-4B)    
1 42759U 17034B   22086.83358282  .00002618  00000+0  16641-3 0  9996
2 42759  43.0178  62.3492 0007021 139.4379 296.8508 15.11142367264005
ZHUHAI-1 01 (CAS-4A)    
1 42761U 17034D   22086.80681275  .00002518  00000+0  16014-3 0  9990
2 42761  43.0180  61.3431 0007380 141.8769 286.9664 15.11230724264009
MAX VALIER SAT          
1 42778U 17036P   22086.69773823  .00006385  00000+0  25508-3 0  9992
2 42778  97.2180 130.6459 0009664 251.3737 108.6453 15.25422999264432
RADFXSAT (FOX-1B)       
1 43017U 17073E   22086.69192275  .00003426  00000+0  26143-3 0  9995
2 43017  97.6847 344.2232 0252905  95.4032 267.6086 14.80601108235019
FOX-1D (AO-92)          
1 43137U 18004AC  22086.72199993  .00007939  00000+0  29741-3 0  9991
2 43137  97.3746 162.7018 0006633 293.9209  66.1335 15.27522970233869
DIWATA-2B               
1 43678U 18084H   22086.90282071  .00000303  00000+0  35644-4 0  9997
2 43678  97.9553 219.2897 0009587 186.9341 173.1757 14.91978252185695
ES'HAIL 2               
1 43700U 18090A   22086.89723007  .00000123  00000+0  00000+0 0  9990
2 43700   0.0244 181.4232 0002346 220.1503 132.5128  1.00269817 12453
FOX-1CLIFF (AO-95)      
1 43770U 18099N   22086.73237927  .00002466  00000+0  22493-3 0  9996
2 43770  97.6290 155.2019 0014419 183.7606 176.3509 14.95928818180790
ITASAT 1                
1 43786U 18099AE  22086.86917695  .00002343  00000+0  21275-3 0  9995
2 43786  97.6314 156.2057 0015256 176.2036 183.9304 14.96145439180856
JY1SAT (JO-97)          
1 43803U 18099AX  22086.91095864  .00002362  00000+0  21238-3 0  9996
2 43803  97.6270 155.9874 0015118 177.0301 183.1013 14.96521595180873
UWE-4                   
1 43880U 18111E   22086.70143977  .00002764  00000+0  24139-3 0  9991
2 43880  97.6749 354.4491 0010222 229.4652 130.5680 14.97586990177460
NEXUS (FO-99)           
1 43937U 19003F   22086.65847812  .00010862  00000+0  39157-3 0  9992
2 43937  97.1424 123.2715 0023527  87.4746 272.9188 15.28437965177474
PSAT2 (NO-104)          
1 44354U 19036R   22086.91012496  .00053033 -52292-5  55438-3 0  9997
2 44354  28.5257  19.2682 0265196 138.6666 223.4324 15.29819843152147
BRICSAT2 (NO-103)       
1 44355U 19036S   22086.78888687  .00297590  20700-4  10388-2 0  9995
2 44355  28.5189 259.2346 0106150 335.8812  23.6853 15.79352460153323
JAISAT-1                
1 44419U 19038F   22086.88727876  .00008832  00000+0  46424-3 0  9997
2 44419  97.6277  56.4853 0021823  57.7367 302.5975 15.15715615150693
DUCHIFAT-3              
1 44854U 19089C   22086.73751182  .00003033  00000+0  24296-3 0  9998
2 44854  36.9647 224.5459 0008970 282.3174  77.6563 15.00372319125658
CAS-6 (TO-108)          
1 44881U 19093C   22086.86428362  .00000392  00000+0  56442-4 0  9992
2 44881  97.8967 167.2385 0016561  91.7351 268.5752 14.81606405122690
RS-44 & BREEZE-KM R/B   
1 44909U 19096E   22086.88190944  .00000032  00000+0  79836-4 0  9993
2 44909  82.5168 284.4785 0217905 150.2347 211.1361 12.79712437105073
ORBITAL FACTORY 2 (OF-2)
1 45113U 19071C   22086.58370849  .00020446  00000+0  49685-3 0  9994
2 45113  51.6390 100.8907 0008531 240.8011 119.2121 15.40929192120730
HUSKYSAT-1 (HO-107)     
1 45119U 19071J   22086.29383460  .00016635  00000+0  41227-3 0  9990
2 45119  51.6394 101.9357 0008242 234.8503 125.1710 15.40486693120687
BY70-2                  
1 45857U 20042B   22086.91359287  .00004168  00000+0  57709-3 0  9998
2 45857  97.9590 164.6021 0010667  29.2462 330.9384 14.78512129 93401
SALSAT                  
1 46495U 20068K   22086.81171978  .00001420  00000+0  10695-3 0  9994
2 46495  97.7224  28.1523 0016228 187.4898 172.6088 15.04042128 81914
BY70-3                  
1 46839U 20079N   22086.84436521  .00015001  00000+0  40159-3 0  9997
2 46839  97.2059 160.2036 0004906 262.6696 232.8661 15.38107926 77686
RADFXSAT-2 (AO-109)     
1 47311U 21002C   22086.88205649  .00007524  00000+0  32122-3 0  9991
2 47311  60.6868 308.9640 0014329 213.0152 147.0042 15.23700491 66029
UVSQ-SAT                
1 47438U 21006AB  22086.91633145  .00006168  00000+0  33772-3 0  9990
2 47438  97.4475 147.6264 0012146 191.2066 168.8898 15.14526626 64931
DIY-1 (ARDUIQUBE)       
1 47963U 21022AH  22086.68626393  .00014156  00000+0  85796-3 0  9991
2 47963  97.5392 349.1357 0019951  57.6755 302.6403 15.10510989 54598
XW-3 (CAS-9)            
1 50466U 21131B   22086.85894084  .00000098  00000+0  46661-4 0  9996
2 50466  98.5847 164.1415 0005057  47.0765 313.0846 14.38453258 13183
